{
  "generatedAtUtc": "2026-03-01T00:11:17.240Z",
  "provider": "starlink",
  "sourceRootHint": "../tle_data",
  "sourceFile": "starlink/json/starlink_20260227.json",
  "sourceRecordCount": 9669,
  "sampledRecordCount": 320,
  "records": [
    {
      "objectName": "STARLINK-1008",
      "objectId": "2019-074B",
      "noradId": 44714,
      "epochUtc": "2026-02-27T04:42:58.768128",
      "meanMotionRevPerDay": 15.31035237,
      "eccentricity": 0.0000416,
      "inclinationDeg": 53.1648,
      "raanDeg": 227.5601,
      "argPerigeeDeg": 313.3963,
      "meanAnomalyDeg": 46.7004,
      "bstar": 0.000055373724,
      "meanMotionDot": 0.00001321,
      "meanMotionDdot": 0,
      "elementSetNo": 999,
      "revAtEpoch": 34726
    },
    {
      "objectName": "STARLINK-1169",
      "objectId": "2020-006T",
      "noradId": 45061,
      "epochUtc": "2026-02-27T03:27:18.480960",
      "meanMotionRevPerDay": 15.30221717,
      "eccentricity": 0.00014814,
      "inclinationDeg": 53.1594,
      "raanDeg": 329.981,
      "argPerigeeDeg": 72.8805,
      "meanAnomalyDeg": 287.2358,
      "bstar": 0.00022521736,
      "meanMotionDot": 0.00006321,
      "meanMotionDdot": 0,
      "elementSetNo": 999,
      "revAtEpoch": 33493
    },
    {
      "objectName": "STARLINK-1222",
      "objectId": "2020-012BC",
      "noradId": 45228,
      "epochUtc": "2026-02-27T05:36:57.468672",
      "meanMotionRevPerDay": 15.48828889,
      "eccentricity": 0.00040451,
      "inclinationDeg": 53.057,
      "raanDeg": 32.9123,
      "argPerigeeDeg": 55.5909,
      "meanAnomalyDeg": 304.5481,
      "bstar": 0.00061585351,
      "meanMotionDot": 0.00033386,
      "meanMotionDdot": 0,
      "elementSetNo": 999,
      "revAtEpoch": 33400
    },
    {
      "objectName": "STARLINK-1278",
      "objectId": "2020-019BA",
      "noradId": 45408,
      "epochUtc": "2026-02-27T06:00:02.000160",
      "meanMotionRevPerDay": 15.53509095,
      "eccentricity": 0.00014683,
      "inclinationDeg": 53.045,
      "raanDeg": 180.8521,
      "argPerigeeDeg": 137.1592,
      "meanAnomalyDeg": 284.522,
      "bstar": 0.0023945576,
      "meanMotionDot": 0.00157421,
      "meanMotionDdot": 0,
      "elementSetNo": 999,
      "revAtEpoch": 575
    },
    {
      "objectName": "STARLINK-1347",
      "objectId": "2020-025BH",
      "noradId": 45586,
      "epochUtc": "2026-02-27T06:08:44.832480",
      "meanMotionRevPerDay": 15.5179863,
      "eccentricity": 0.00060802,
      "inclinationDeg": 53.0472,
      "raanDeg": 79.7794,
      "argPerigeeDeg": 9.0712,
      "meanAnomalyDeg": 351.0405,
      "bstar": 0.0013985922,
      "meanMotionDot": 0.00085503,
      "meanMotionDdot": 0,
      "elementSetNo": 999,
      "revAtEpoch": 32454
    },
    {
      "objectName": "STARLINK-1465",
      "objectId": "2020-038B",
      "noradId": 45731,
      "epochUtc": "2026-02-26T23:58:02.567712",
      "meanMotionRevPerDay": 15.47987734,
      "eccentricity": 0.00038499,
      "inclinationDeg": 53.0529,
      "raanDeg": 274.3797,
      "argPerigeeDeg": 185.7728,
      "meanAnomalyDeg": 174.3236,
      "bstar": 0.0014782254,
      "meanMotionDot": 0.00078873,
      "meanMotionDdot": 0,
      "elementSetNo": 999,
      "revAtEpoch": 31472
    },
    {
      "objectName": "STARLINK-1527",
      "objectId": "2020-055X",
      "noradId": 46048,
      "epochUtc": "2026-02-27T06:00:02.000160",
      "meanMotionRevPerDay": 15.29343381,
      "eccentricity": 0.00014215,
      "inclinationDeg": 53.1559,
      "raanDeg": 162.3934,
      "argPerigeeDeg": 93.1767,
      "meanAnomalyDeg": 143.8858,
      "bstar": 0.0021500932,
      "meanMotionDot": 0.00062184,
      "meanMotionDdot": 0,
      "elementSetNo": 999,
      "revAtEpoch": 577
    },
    {
      "objectName": "STARLINK-1625",
      "objectId": "2020-057Q",
      "noradId": 46131,
      "epochUtc": "2026-02-27T06:00:02.000160",
      "meanMotionRevPerDay": 15.79096913,
      "eccentricity": 0.00071077,
      "inclinationDeg": 53.0486,
      "raanDeg": 300.6455,
      "argPerigeeDeg": 157.9006,
      "meanAnomalyDeg": 169.5639,
      "bstar": 0.00088514305,
      "meanMotionDot": 0.00163744,
      "meanMotionDdot": 0,
      "elementSetNo": 999,
      "revAtEpoch": 579
    },
    {
      "objectName": "STARLINK-1765",
      "objectId": "2020-062V",
      "noradId": 46344,
      "epochUtc": "2026-02-27T06:00:02.000160",
      "meanMotionRevPerDay": 15.82193261,
      "eccentricity": 0.00045584,
      "inclinationDeg": 53.0423,
      "raanDeg": 354.3841,
      "argPerigeeDeg": 116.382,
      "meanAnomalyDeg": 306.8292,
      "bstar": 0.0012783263,
      "meanMotionDot": 0.0027639,
      "meanMotionDdot": 0,
      "elementSetNo": 999,
      "revAtEpoch": 586
    },
    {
      "objectName": "STARLINK-1733",
      "objectId": "2020-070AJ",
      "noradId": 46564,
      "epochUtc": "2026-02-27T06:36:53.282880",
      "meanMotionRevPerDay": 15.71188634,
      "eccentricity": 0.00016557,
      "inclinationDeg": 53.044,
      "raanDeg": 159.0784,
      "argPerigeeDeg": 222.9712,
      "meanAnomalyDeg": 137.1176,
      "bstar": 0.0017854749,
      "meanMotionDot": 0.00236151,
      "meanMotionDdot": 0,
      "elementSetNo": 999,
      "revAtEpoch": 29882
    },
    {
      "objectName": "STARLINK-1821",
      "objectId": "2020-073BA",
      "noradId": 46718,
      "epochUtc": "2026-02-27T00:01:27.797088",
      "meanMotionRevPerDay": 15.36176074,
      "eccentricity": 0.00070602,
      "inclinationDeg": 53.0504,
      "raanDeg": 276.8705,
      "argPerigeeDeg": 123.5905,
      "meanAnomalyDeg": 236.5772,
      "bstar": 0.0015101636,
      "meanMotionDot": 0.00054048,
      "meanMotionDdot": 0,
      "elementSetNo": 999,
      "revAtEpoch": 29570
    },
    {
      "objectName": "STARLINK-2017",
      "objectId": "2021-005C",
      "noradId": 47351,
      "epochUtc": "2026-02-27T06:04:05.490048",
      "meanMotionRevPerDay": 15.30219175,
      "eccentricity": 0.00014513,
      "inclinationDeg": 53.1591,
      "raanDeg": 62.1462,
      "argPerigeeDeg": 82.6543,
      "meanAnomalyDeg": 277.4623,
      "bstar": 0.00049957046,
      "meanMotionDot": 0.00014474,
      "meanMotionDdot": 0,
      "elementSetNo": 999,
      "revAtEpoch": 28212
    },
    {
      "objectName": "STARLINK-2111",
      "objectId": "2021-005AT",
      "noradId": 47390,
      "epochUtc": "2026-02-27T03:58:16.163904",
      "meanMotionRevPerDay": 15.06396161,
      "eccentricity": 0.00013598,
      "inclinationDeg": 53.0552,
      "raanDeg": 108.8671,
      "argPerigeeDeg": 96.4525,
      "meanAnomalyDeg": 263.6619,
      "bstar": 0.000047175827,
      "meanMotionDot": 0.00000421,
      "meanMotionDdot": 0,
      "elementSetNo": 999,
      "revAtEpoch": 28145
    },
    {
      "objectName": "STARLINK-1655",
      "objectId": "2021-012D",
      "noradId": 47623,
      "epochUtc": "2026-02-27T06:00:02.000160",
      "meanMotionRevPerDay": 15.61362868,
      "eccentricity": 0.00040231,
      "inclinationDeg": 53.0444,
      "raanDeg": 17.1597,
      "argPerigeeDeg": 285.7285,
      "meanAnomalyDeg": 230.7776,
      "bstar": 0.0018074016,
      "meanMotionDot": 0.0015942,
      "meanMotionDdot": 0,
      "elementSetNo": 999,
      "revAtEpoch": 592
    }
  ]
}
