STARLINK-1008           
1 44714U 19074B   26058.19651352  .00001321  00000+0  55374-4 0  9998
2 44714  53.1648 227.5601 0000416 313.3963  46.7004 15.31035237347264
STARLINK-1169           
1 45061U 20006T   26058.14396390  .00006321  00000+0  22522-3 0  9997
2 45061  53.1594 329.9810 0001481  72.8805 287.2358 15.30221717334937
STARLINK-1222           
1 45228U 20012BC  26058.23399848  .00033386  00000+0  61585-3 0  9993
2 45228  53.0570  32.9123 0004045  55.5909 304.5481 15.48828889334005
STARLINK-1278           
1 45408U 20019BA  26058.25002315  .00157421  00000+0  23946-2 0  9997
2 45408  53.0450 180.8521 0001468 137.1592 284.5220 15.53509095  5754
STARLINK-1347           
1 45586U 20025BH  26058.25607445  .00085503  00000+0  13986-2 0  9990
2 45586  53.0472  79.7794 0006080   9.0712 351.0405 15.51798630324548
STARLINK-1465           
1 45731U 20038B   26057.99864083  .00078873  00000+0  14782-2 0  9996
2 45731  53.0529 274.3797 0003849 185.7728 174.3236 15.47987734314725
STARLINK-1527           
1 46048U 20055X   26058.25002315  .00062184  00000+0  21501-2 0  9994
2 46048  53.1559 162.3934 0001421  93.1767 143.8858 15.29343381  5776
STARLINK-1625           
1 46131U 20057Q   26058.25002315  .00163744  00000+0  88514-3 0  9991
2 46131  53.0486 300.6455 0007107 157.9006 169.5639 15.79096913  5799
STARLINK-1765           
1 46344U 20062V   26058.25002315  .00276390  00000+0  12783-2 0  9999
2 46344  53.0423 354.3841 0004558 116.3820 306.8292 15.82193261  5868
STARLINK-1733           
1 46564U 20070AJ  26058.27561670  .00236151  00000+0  17855-2 0  9994
2 46564  53.0440 159.0784 0001655 222.9712 137.1176 15.71188634298828
STARLINK-1821           
1 46718U 20073BA  26058.00101617  .00054048  00000+0  15102-2 0  9996
2 46718  53.0504 276.8705 0007060 123.5905 236.5772 15.36176074295703
STARLINK-2017           
1 47351U 21005C   26058.25284132  .00014474  00000+0  49957-3 0  9992
2 47351  53.1591  62.1462 0001451  82.6543 277.4623 15.30219175282126
STARLINK-2111           
1 47390U 21005AT  26058.16546486  .00000421  00000+0  47176-4 0  9997
2 47390  53.0552 108.8671 0001359  96.4525 263.6619 15.06396161281456
STARLINK-1655           
1 47623U 21012D   26058.25002315  .00159420  00000+0  18074-2 0  9999
2 47623  53.0444  17.1597 0004023 285.7285 230.7776 15.61362868  5924
